{"type": "FeatureCollection", "features": [ {"type": "Feature", "properties": {"norad_id": 34571, "name": "COSMOS 2251 DEB", "group": "cosmos-2251-debris", "lat": -32.60716460187069, "lon": 163.93066274855417, "alt_km": 756.4647309713355, "timestamp": "2025-12-16T23:36:36.592675+00:00", "meta": {"OBJECT_NAME": "COSMOS 2251 DEB", "OBJECT_ID": "1993-036VH", "EPOCH": "2025-12-16T05:32:23.948736", "MEAN_MOTION": 14.48865771, "ECCENTRICITY": 0.00655932, "INCLINATION": 74.0397, "RA_OF_ASC_NODE": 175.8899, "ARG_OF_PERICENTER": 209.9824, "MEAN_ANOMALY": 149.7575, "EPHEMERIS_TYPE": 0, "CLASSIFICATION_TYPE": "U", "NORAD_CAT_ID": 34571, "ELEMENT_SET_NO": 999, "REV_AT_EPOCH": 87344, "BSTAR": 0.0015531175, "MEAN_MOTION_DOT": 6.012e-05, "MEAN_MOTION_DDOT": 0}, "tle": {"line1": "1 34571U 93036VH  25350.23083274  .00006012  00000+0  15531-2 0  9990", "line2": "2 34571  74.0397 175.8899 0065593 209.9824 149.7575 14.48865771873446"}}, "geometry": {"type": "Point", "coordinates": [163.93066274855417, -32.60716460187069]}}, {"type": "Feature", "properties": {"norad_id": 34572, "name": "COSMOS 2251 DEB", "group": "cosmos-2251-debris", "lat": -25.7059125002238, "lon": -64.54333575958384, "alt_km": 690.7805480759926, "timestamp": "2025-12-16T23:36:36.592685+00:00", "meta": {"OBJECT_NAME": "COSMOS 2251 DEB", "OBJECT_ID": "1993-036VJ", "EPOCH": "2025-12-16T07:54:28.545984", "MEAN_MOTION": 14.50089794, "ECCENTRICITY": 0.00624031, "INCLINATION": 74.0096, "RA_OF_ASC_NODE": 108.7525, "ARG_OF_PERICENTER": 181.9081, "MEAN_ANOMALY": 210.4216, "EPHEMERIS_TYPE": 0, "CLASSIFICATION_TYPE": "U", "NORAD_CAT_ID": 34572, "ELEMENT_SET_NO": 999, "REV_AT_EPOCH": 87430, "BSTAR": 0.001902929, "MEAN_MOTION_DOT": 7.55e-05, "MEAN_MOTION_DDOT": 0}, "tle": {"line1": "1 34572U 93036VJ  25350.32949706  .00007550  00000+0  19029-2 0  9996", "line2": "2 34572  74.0096 108.7525 0062403 181.9081 210.4216 14.50089794874305"}}, "geometry": {"type": "Point", "coordinates": [-64.54333575958384, -25.7059125002238]}}, {"type": "Feature", "properties": {"norad_id": 34574, "name": "COSMOS 2251 DEB", "group": "cosmos-2251-debris", "lat": 45.129019572247834, "lon": 51.58621621085891, "alt_km": 607.9878358753067, "timestamp": "2025-12-16T23:36:36.592695+00:00", "meta": {"OBJECT_NAME": "COSMOS 2251 DEB", "OBJECT_ID": "1993-036VL", "EPOCH": "2025-12-16T02:17:17.299104", "MEAN_MOTION": 14.70644111, "ECCENTRICITY": 0.00669782, "INCLINATION": 74.0697, "RA_OF_ASC_NODE": 36.6333, "ARG_OF_PERICENTER": 56.5512, "MEAN_ANOMALY": 329.4758, "EPHEMERIS_TYPE": 0, "CLASSIFICATION_TYPE": "U", "NORAD_CAT_ID": 34574, "ELEMENT_SET_NO": 999, "REV_AT_EPOCH": 88828, "BSTAR": 0.00059900409, "MEAN_MOTION_DOT": 3.743e-05, "MEAN_MOTION_DDOT": 0}, "tle": {"line1": "1 34574U 93036VL  25350.09533911  .00003743  00000+0  59900-3 0  9992", "line2": "2 34574  74.0697  36.6333 0066978  56.5512 329.4758 14.70644111888283"}}, "geometry": {"type": "Point", "coordinates": [51.58621621085891, 45.129019572247834]}}, {"type": "Feature", "properties": {"norad_id": 34576, "name": "COSMOS 2251 DEB", "group": "cosmos-2251-debris", "lat": 33.06557204899131, "lon": -60.58544121279762, "alt_km": 708.510177522151, "timestamp": "2025-12-16T23:36:36.592706+00:00", "meta": {"OBJECT_NAME": "COSMOS 2251 DEB", "OBJECT_ID": "1993-036VN", "EPOCH": "2025-12-16T03:58:11.824032", "MEAN_MOTION": 14.55450437, "ECCENTRICITY": 0.0008175, "INCLINATION": 74.0337, "RA_OF_ASC_NODE": 131.7065, "ARG_OF_PERICENTER": 268.227, "MEAN_ANOMALY": 271.1307, "EPHEMERIS_TYPE": 0, "CLASSIFICATION_TYPE": "U", "NORAD_CAT_ID": 34576, "ELEMENT_SET_NO": 999, "REV_AT_EPOCH": 88516, "BSTAR": 0.0006252815, "MEAN_MOTION_DOT": 2.693e-05, "MEAN_MOTION_DDOT": 0}, "tle": {"line1": "1 34576U 93036VN  25350.16541463  .00002693  00000+0  62528-3 0  9996", "line2": "2 34576  74.0337 131.7065 0008175 268.2270 271.1307 14.55450437885169"}}, "geometry": {"type": "Point", "coordinates": [-60.58544121279762, 33.06557204899131]}}, {"type": "Feature", "properties": {"norad_id": 34579, "name": "COSMOS 2251 DEB", "group": "cosmos-2251-debris", "lat": -27.533454798155347, "lon": 44.565331956308306, "alt_km": 741.3565546542777, "timestamp": "2025-12-16T23:36:36.592716+00:00", "meta": {"OBJECT_NAME": "COSMOS 2251 DEB", "OBJECT_ID": "1993-036VR", "EPOCH": "2025-12-15T23:41:07.154304", "MEAN_MOTION": 14.45317359, "ECCENTRICITY": 0.00275474, "INCLINATION": 74.052, "RA_OF_ASC_NODE": 217.8477, "ARG_OF_PERICENTER": 285.9959, "MEAN_ANOMALY": 138.193, "EPHEMERIS_TYPE": 0, "CLASSIFICATION_TYPE": "U", "NORAD_CAT_ID": 34579, "ELEMENT_SET_NO": 999, "REV_AT_EPOCH": 88221, "BSTAR": 0.00037219177, "MEAN_MOTION_DOT": 1.286e-05, "MEAN_MOTION_DDOT": 0}, "tle": {"line1": "1 34579U 93036VR  25349.98688836  .00001286  00000+0  37219-3 0  9999", "line2": "2 34579  74.0520 217.8477 0027547 285.9959 138.1930 14.45317359882214"}}, "geometry": {"type": "Point", "coordinates": [44.565331956308306, -27.533454798155347]}}, {"type": "Feature", "properties": {"norad_id": 34582, "name": "COSMOS 2251 DEB", "group": "cosmos-2251-debris", "lat": 58.47762200717704, "lon": 56.63171050300374, "alt_km": 749.4784098338505, "timestamp": "2025-12-16T23:36:36.592726+00:00", "meta": {"OBJECT_NAME": "COSMOS 2251 DEB", "OBJECT_ID": "1993-036VU", "EPOCH": "2025-12-16T04:46:21.858240", "MEAN_MOTION": 14.43344273, "ECCENTRICITY": 0.00480692, "INCLINATION": 74.0201, "RA_OF_ASC_NODE": 265.9435, "ARG_OF_PERICENTER": 15.3277, "MEAN_ANOMALY": 344.9322, "EPHEMERIS_TYPE": 0, "CLASSIFICATION_TYPE": "U", "NORAD_CAT_ID": 34582, "ELEMENT_SET_NO": 999, "REV_AT_EPOCH": 87997, "BSTAR": 0.00064866737, "MEAN_MOTION_DOT": 2.192e-05, "MEAN_MOTION_DDOT": 0}, "tle": {"line1": "1 34582U 93036VU  25350.19886410  .00002192  00000+0  64867-3 0  9992", "line2": "2 34582  74.0201 265.9435 0048069  15.3277 344.9322 14.43344273879976"}}, "geometry": {"type": "Point", "coordinates": [56.63171050300374, 58.47762200717704]}}, {"type": "Feature", "properties": {"norad_id": 34588, "name": "COSMOS 2251 DEB", "group": "cosmos-2251-debris", "lat": 26.963953900720266, "lon": 72.0225164138369, "alt_km": 763.3284786958102, "timestamp": "2025-12-16T23:36:36.592737+00:00", "meta": {"OBJECT_NAME": "COSMOS 2251 DEB", "OBJECT_ID": "1993-036WA", "EPOCH": "2025-12-16T05:18:56.395584", "MEAN_MOTION": 14.42033389, "ECCENTRICITY": 0.00192455, "INCLINATION": 74.0439, "RA_OF_ASC_NODE": 261.8035, "ARG_OF_PERICENTER": 314.1113, "MEAN_ANOMALY": 202.1318, "EPHEMERIS_TYPE": 0, "CLASSIFICATION_TYPE": "U", "NORAD_CAT_ID": 34588, "ELEMENT_SET_NO": 999, "REV_AT_EPOCH": 88000, "BSTAR": 0.00035727386, "MEAN_MOTION_DOT": 1.149e-05, "MEAN_MOTION_DDOT": 0}, "tle": {"line1": "1 34588U 93036WA  25350.22148606  .00001149  00000+0  35727-3 0  9994", "line2": "2 34588  74.0439 261.8035 0019245 314.1113 202.1318 14.42033389880007"}}, "geometry": {"type": "Point", "coordinates": [72.0225164138369, 26.963953900720266]}}, {"type": "Feature", "properties": {"norad_id": 34589, "name": "COSMOS 2251 DEB", "group": "cosmos-2251-debris", "lat": -37.03945505762317, "lon": -118.63165889588339, "alt_km": 1070.7070218219906, "timestamp": "2025-12-16T23:36:36.592747+00:00", "meta": {"OBJECT_NAME": "COSMOS 2251 DEB", "OBJECT_ID": "1993-036WB", "EPOCH": "2025-12-15T21:07:13.255392", "MEAN_MOTION": 13.86055381, "ECCENTRICITY": 0.02519969, "INCLINATION": 73.9257, "RA_OF_ASC_NODE": 50.6812, "ARG_OF_PERICENTER": 353.4006, "MEAN_ANOMALY": 122.126, "EPHEMERIS_TYPE": 0, "CLASSIFICATION_TYPE": "U", "NORAD_CAT_ID": 34589, "ELEMENT_SET_NO": 999, "REV_AT_EPOCH": 84755, "BSTAR": 0.00028237935, "MEAN_MOTION_DOT": 3.93e-06, "MEAN_MOTION_DDOT": 0}, "tle": {"line1": "1 34589U 93036WB  25349.88001453  .00000393  00000+0  28238-3 0  9992", "line2": "2 34589  73.9257  50.6812 0251996 353.4006 122.1260 13.86055381847552"}}, "geometry": {"type": "Point", "coordinates": [-118.63165889588339, -37.03945505762317]}}, {"type": "Feature", "properties": {"norad_id": 34590, "name": "COSMOS 2251 DEB", "group": "cosmos-2251-debris", "lat": 3.7976190448759937, "lon": 133.43429940646854, "alt_km": 714.271664607274, "timestamp": "2025-12-16T23:36:36.592757+00:00", "meta": {"OBJECT_NAME": "COSMOS 2251 DEB", "OBJECT_ID": "1993-036WC", "EPOCH": "2025-12-16T08:38:38.666400", "MEAN_MOTION": 14.54830103, "ECCENTRICITY": 0.00679681, "INCLINATION": 74.044, "RA_OF_ASC_NODE": 315.7016, "ARG_OF_PERICENTER": 84.2273, "MEAN_ANOMALY": 66.298, "EPHEMERIS_TYPE": 0, "CLASSIFICATION_TYPE": "U", "NORAD_CAT_ID": 34590, "ELEMENT_SET_NO": 999, "REV_AT_EPOCH": 89173, "BSTAR": 0.0001292882, "MEAN_MOTION_DOT": 5.42e-06, "MEAN_MOTION_DDOT": 0}, "tle": {"line1": "1 34590U 93036WC  25350.36016975  .00000542  00000+0  12929-3 0  9990", "line2": "2 34590  74.0440 315.7016 0067968  84.2273  66.2980 14.54830103891735"}}, "geometry": {"type": "Point", "coordinates": [133.43429940646854, 3.7976190448759937]}}, {"type": "Feature", "properties": {"norad_id": 34609, "name": "COSMOS 2251 DEB", "group": "cosmos-2251-debris", "lat": 19.148117833570232, "lon": -86.85269875124418, "alt_km": 915.7126186908836, "timestamp": "2025-12-16T23:36:36.592768+00:00", "meta": {"OBJECT_NAME": "COSMOS 2251 DEB", "OBJECT_ID": "1993-036WE", "EPOCH": "2025-12-15T18:52:52.677120", "MEAN_MOTION": 14.21805593, "ECCENTRICITY": 0.01453201, "INCLINATION": 73.7332, "RA_OF_ASC_NODE": 101.1529, "ARG_OF_PERICENTER": 320.1561, "MEAN_ANOMALY": 195.7348, "EPHEMERIS_TYPE": 0, "CLASSIFICATION_TYPE": "U", "NORAD_CAT_ID": 34609, "ELEMENT_SET_NO": 999, "REV_AT_EPOCH": 86675, "BSTAR": 0.00056746146, "MEAN_MOTION_DOT": 1.362e-05, "MEAN_MOTION_DDOT": 0}, "tle": {"line1": "1 34609U 93036WE  25349.78672080  .00001362  00000+0  56746-3 0  9996", "line2": "2 34609  73.7332 101.1529 0145320 320.1561 195.7348 14.21805593866758"}}, "geometry": {"type": "Point", "coordinates": [-86.85269875124418, 19.148117833570232]}}]}